{
  "type": "FeatureCollection",
  "features": [
    {
      "type": "Feature",
      "properties": { "name": "Abbasid Caliphate 762 (consolidation under al-Mansur)" },
      "geometry": {
        "type": "Polygon",
        "coordinates": [
          [
            [9.5, 37.3],
            [11.1, 35.2],
            [11.0, 33.8],
            [15.2, 32.4],
            [19.0, 30.5],
            [20.1, 32.9],
            [23.0, 32.6],
            [25.2, 31.6],
            [29.9, 31.2],
            [32.3, 31.3],
            [34.6, 31.5],
            [35.5, 33.9],
            [35.9, 35.9],
            [36.2, 36.6],
            [38.0, 37.4],
            [40.5, 38.1],
            [43.0, 39.6],
            [45.5, 40.2],
            [48.3, 41.2],
            [49.4, 38.5],
            [50.3, 36.9],
            [53.9, 36.9],
            [56.5, 38.2],
            [59.5, 37.6],
            [61.8, 37.9],
            [64.4, 39.8],
            [67.0, 39.9],
            [69.3, 41.3],
            [72.5, 40.9],
            [73.9, 40.1],
            [71.6, 37.9],
            [71.2, 35.2],
            [69.8, 33.9],
            [68.4, 31.7],
            [70.3, 30.4],
            [71.9, 30.2],
            [70.8, 27.8],
            [69.2, 24.5],
            [67.5, 24.6],
            [64.5, 25.2],
            [61.5, 25.1],
            [58.8, 25.4],
            [57.0, 26.6],
            [54.8, 26.5],
            [52.5, 27.5],
            [50.8, 28.9],
            [48.6, 29.9],
            [47.9, 29.4],
            [50.2, 26.3],
            [51.3, 24.5],
            [54.5, 24.2],
            [56.3, 26.1],
            [55.3, 22.8],
            [52.0, 19.0],
            [48.5, 15.4],
            [45.0, 12.8],
            [43.4, 12.6],
            [42.7, 15.0],
            [41.2, 18.0],
            [39.1, 21.4],
            [37.4, 24.4],
            [34.9, 29.3],
            [34.0, 27.8],
            [32.6, 29.9],
            [33.6, 27.9],
            [34.5, 25.5],
            [35.6, 23.9],
            [32.9, 23.9],
            [29.0, 22.5],
            [25.0, 23.5],
            [19.0, 25.5],
            [14.5, 27.0],
            [10.5, 30.0],
            [8.0, 33.5],
            [5.5, 36.8],
            [9.5, 37.3]
          ]
        ]
      }
    }
  ]
}
