{
  "type": "FeatureCollection",
  "features": [
    {
      "type": "Feature",
      "properties": { "name": "Achaemenid realm 550 BCE (Cyrus after the conquest of Media)" },
      "geometry": {
        "type": "Polygon",
        "coordinates": [
          [
            [44.3, 37.2],
            [45.5, 38.0],
            [47.0, 38.5],
            [48.8, 38.3],
            [50.5, 37.3],
            [52.5, 36.8],
            [54.5, 37.2],
            [56.5, 37.8],
            [58.5, 37.5],
            [59.5, 36.5],
            [60.5, 35.2],
            [61.0, 33.8],
            [60.5, 32.0],
            [60.8, 30.2],
            [61.5, 28.8],
            [62.0, 27.5],
            [60.5, 26.6],
            [58.5, 26.4],
            [57.0, 26.9],
            [55.5, 27.2],
            [53.8, 27.8],
            [52.2, 28.6],
            [50.8, 29.6],
            [49.4, 30.2],
            [48.2, 30.4],
            [47.5, 31.5],
            [46.5, 32.8],
            [45.5, 34.0],
            [44.8, 35.2],
            [44.2, 36.2],
            [44.3, 37.2]
          ]
        ]
      }
    }
  ]
}
