{
  "type": "FeatureCollection",
  "features": [
    {
      "type": "Feature",
      "properties": { "name": "Achaemenid Empire 335 BCE (eve of Alexander's crossing)" },
      "geometry": {
        "type": "Polygon",
        "coordinates": [
          [
            [26.5, 40.3],
            [30.0, 41.2],
            [33.5, 42.0],
            [37.0, 41.2],
            [39.5, 41.1],
            [41.5, 41.5],
            [44.0, 41.3],
            [46.5, 41.5],
            [48.5, 41.7],
            [49.3, 40.0],
            [49.0, 38.5],
            [50.0, 36.9],
            [52.5, 36.7],
            [54.0, 37.0],
            [56.0, 38.5],
            [58.0, 40.0],
            [60.0, 41.5],
            [62.0, 42.5],
            [64.5, 42.8],
            [67.0, 42.0],
            [69.5, 41.5],
            [71.0, 40.5],
            [70.5, 39.0],
            [71.5, 37.5],
            [71.0, 36.0],
            [71.5, 34.5],
            [72.5, 33.5],
            [72.0, 31.5],
            [71.0, 29.5],
            [69.5, 27.5],
            [68.5, 25.5],
            [67.5, 24.2],
            [65.0, 25.0],
            [62.0, 25.2],
            [59.0, 25.5],
            [57.0, 26.6],
            [55.0, 27.3],
            [53.0, 27.7],
            [51.0, 28.5],
            [49.5, 29.7],
            [48.5, 29.8],
            [46.5, 29.9],
            [44.5, 30.2],
            [41.0, 31.0],
            [38.0, 30.0],
            [36.0, 29.2],
            [34.8, 29.4],
            [33.8, 28.4],
            [33.0, 26.5],
            [32.9, 24.1],
            [31.8, 24.5],
            [30.8, 26.5],
            [30.2, 28.5],
            [29.5, 30.0],
            [28.5, 30.8],
            [29.8, 31.3],
            [32.3, 31.3],
            [34.2, 31.4],
            [35.0, 33.0],
            [35.9, 35.5],
            [36.2, 36.5],
            [34.5, 36.6],
            [32.5, 36.3],
            [30.5, 36.5],
            [28.5, 36.8],
            [27.2, 37.5],
            [26.5, 38.5],
            [26.3, 39.5],
            [26.5, 40.3]
          ]
        ]
      }
    }
  ]
}
