{
  "type": "FeatureCollection",
  "features": [
    {
      "type": "Feature",
      "properties": { "name": "Akkadian Empire 2250 BCE (peak under Naram-Sin, Gulf to Ebla)" },
      "geometry": {
        "type": "Polygon",
        "coordinates": [
          [
            [48.9, 29.9],
            [49.4, 30.6],
            [48.9, 31.6],
            [48.3, 32.4],
            [47.6, 33.2],
            [46.9, 34.0],
            [46.2, 34.8],
            [45.6, 35.5],
            [44.8, 36.2],
            [44.0, 36.8],
            [43.0, 37.2],
            [41.8, 37.4],
            [40.5, 37.3],
            [39.2, 37.0],
            [38.0, 36.8],
            [36.9, 36.5],
            [36.2, 35.9],
            [36.6, 35.3],
            [37.6, 35.2],
            [38.7, 35.0],
            [39.8, 34.6],
            [40.8, 34.0],
            [41.6, 33.3],
            [42.3, 32.6],
            [43.1, 31.9],
            [44.0, 31.2],
            [45.0, 30.6],
            [46.1, 30.1],
            [47.2, 29.8],
            [48.1, 29.7],
            [48.9, 29.9]
          ]
        ]
      }
    }
  ]
}
