{
  "type": "FeatureCollection",
  "features": [
    {
      "type": "Feature",
      "properties": { "name": "Akkadian Empire 2330 BCE (Sargon unites Sumer and Akkad)" },
      "geometry": {
        "type": "Polygon",
        "coordinates": [
          [
            [47.9, 30.2],
            [48.6, 30.0],
            [48.4, 30.9],
            [47.7, 31.6],
            [47.2, 32.3],
            [46.5, 33.0],
            [45.8, 33.7],
            [45.0, 34.3],
            [44.2, 34.6],
            [43.4, 34.4],
            [42.8, 33.9],
            [42.9, 33.2],
            [43.5, 32.5],
            [44.2, 31.8],
            [45.0, 31.2],
            [45.9, 30.7],
            [46.9, 30.3],
            [47.9, 30.2]
          ]
        ]
      }
    }
  ]
}
