{
  "type": "FeatureCollection",
  "features": [
    {
      "type": "Feature",
      "properties": { "name": "Akkadian Empire 2200 BCE (contraction under Shar-kali-sharri)" },
      "geometry": {
        "type": "Polygon",
        "coordinates": [
          [
            [43.0, 33.5],
            [43.8, 32.6],
            [44.8, 31.8],
            [45.9, 31.0],
            [47.0, 30.4],
            [48.2, 30.0],
            [48.6, 30.7],
            [47.9, 31.7],
            [47.0, 32.7],
            [46.1, 33.7],
            [45.2, 34.6],
            [44.3, 35.2],
            [43.4, 35.0],
            [42.9, 34.3],
            [43.0, 33.5]
          ]
        ]
      }
    }
  ]
}
