{
  "type": "FeatureCollection",
  "features": [
    {
      "type": "Feature",
      "properties": { "name": "Almohad rump 1250 (Marrakesh and the High Atlas)" },
      "geometry": {
        "type": "Polygon",
        "coordinates": [
          [
            [-9.6, 30.5],
            [-9.8, 31.2],
            [-9.4, 31.9],
            [-8.6, 32.4],
            [-7.6, 32.5],
            [-6.7, 32.2],
            [-6.2, 31.6],
            [-6.4, 31.0],
            [-7.2, 30.5],
            [-8.2, 30.2],
            [-9.1, 30.1],
            [-9.6, 30.5]
          ]
        ]
      }
    }
  ]
}
