{
  "type": "FeatureCollection",
  "features": [
    {
      "type": "Feature",
      "properties": { "name": "Almohad realm 1150 (Maghreb under Abd al-Mu'min)" },
      "geometry": {
        "type": "Polygon",
        "coordinates": [
          [
            [-9.7, 30.4],
            [-9.8, 31.0],
            [-9.3, 32.0],
            [-8.6, 33.0],
            [-7.5, 33.7],
            [-6.5, 34.2],
            [-5.9, 35.1],
            [-5.3, 35.7],
            [-4.3, 35.2],
            [-3.0, 35.3],
            [-1.8, 35.1],
            [-0.5, 35.6],
            [0.8, 36.3],
            [2.5, 36.6],
            [4.0, 36.9],
            [5.0, 36.7],
            [5.0, 35.9],
            [3.5, 35.2],
            [2.0, 34.6],
            [0.5, 34.2],
            [-1.0, 33.6],
            [-2.5, 32.8],
            [-4.0, 32.0],
            [-5.5, 31.3],
            [-7.0, 30.6],
            [-8.3, 30.1],
            [-9.3, 30.0],
            [-9.7, 30.4]
          ]
        ]
      }
    },
    {
      "type": "Feature",
      "properties": { "name": "Andalusian toehold 1150 (Seville and the lower Guadalquivir)" },
      "geometry": {
        "type": "Polygon",
        "coordinates": [
          [
            [-7.4, 37.2],
            [-6.9, 36.7],
            [-6.2, 36.4],
            [-5.4, 36.1],
            [-4.7, 36.5],
            [-5.4, 37.0],
            [-6.2, 37.4],
            [-7.0, 37.5],
            [-7.4, 37.2]
          ]
        ]
      }
    }
  ]
}
