{
  "type": "FeatureCollection",
  "features": [
    {
      "type": "Feature",
      "properties": { "name": "Japanese home islands 1910" },
      "geometry": {
        "type": "Polygon",
        "coordinates": [
          [
            [129.4, 31.2],
            [130.6, 30.9],
            [131.8, 31.5],
            [132.6, 32.8],
            [134.0, 33.3],
            [135.5, 33.4],
            [137.0, 34.4],
            [138.8, 34.5],
            [140.4, 35.2],
            [141.2, 36.5],
            [141.6, 38.5],
            [141.9, 40.5],
            [141.0, 41.8],
            [142.0, 42.2],
            [143.5, 42.0],
            [145.5, 43.3],
            [145.0, 44.3],
            [143.0, 44.5],
            [141.5, 45.4],
            [140.5, 44.0],
            [140.0, 42.8],
            [139.5, 41.8],
            [139.9, 40.0],
            [139.5, 38.5],
            [137.5, 37.3],
            [136.8, 37.4],
            [135.8, 35.6],
            [133.5, 35.5],
            [131.5, 34.7],
            [130.3, 33.5],
            [129.4, 32.5],
            [129.4, 31.2]
          ]
        ]
      }
    },
    {
      "type": "Feature",
      "properties": { "name": "Korea (annexed 1910)" },
      "geometry": {
        "type": "Polygon",
        "coordinates": [
          [
            [126.2, 34.4],
            [127.8, 34.5],
            [129.2, 35.2],
            [129.5, 36.5],
            [129.0, 38.0],
            [128.0, 38.6],
            [128.5, 39.8],
            [129.7, 40.8],
            [130.6, 42.3],
            [129.5, 42.5],
            [128.0, 42.0],
            [126.5, 41.5],
            [125.0, 40.5],
            [124.3, 39.8],
            [125.3, 39.5],
            [125.2, 38.5],
            [126.2, 37.8],
            [126.4, 36.8],
            [126.2, 35.8],
            [126.2, 34.4]
          ]
        ]
      }
    },
    {
      "type": "Feature",
      "properties": { "name": "Taiwan (ceded 1895)" },
      "geometry": {
        "type": "Polygon",
        "coordinates": [
          [
            [120.2, 22.6],
            [121.0, 22.0],
            [121.6, 22.8],
            [121.9, 24.3],
            [121.6, 25.3],
            [120.7, 25.2],
            [120.1, 23.8],
            [120.2, 22.6]
          ]
        ]
      }
    },
    {
      "type": "Feature",
      "properties": { "name": "Karafuto (south Sakhalin, ceded 1905)" },
      "geometry": {
        "type": "Polygon",
        "coordinates": [
          [
            [141.9, 46.0],
            [142.4, 46.7],
            [142.2, 48.0],
            [142.0, 49.0],
            [142.0, 50.0],
            [143.5, 50.0],
            [143.4, 49.2],
            [144.7, 48.9],
            [143.9, 48.0],
            [143.3, 47.0],
            [142.6, 46.3],
            [141.9, 46.0]
          ]
        ]
      }
    }
  ]
}
