{
  "type": "FeatureCollection",
  "features": [
    {
      "type": "Feature",
      "properties": {
        "name": "Japanese home islands 1942"
      },
      "geometry": {
        "type": "Polygon",
        "coordinates": [
          [
            [
              129.4,
              31.2
            ],
            [
              130.6,
              30.9
            ],
            [
              131.8,
              31.5
            ],
            [
              132.6,
              32.8
            ],
            [
              134.0,
              33.3
            ],
            [
              135.5,
              33.4
            ],
            [
              137.0,
              34.4
            ],
            [
              138.8,
              34.5
            ],
            [
              140.4,
              35.2
            ],
            [
              141.2,
              36.5
            ],
            [
              141.6,
              38.5
            ],
            [
              141.9,
              40.5
            ],
            [
              141.0,
              41.8
            ],
            [
              142.0,
              42.2
            ],
            [
              143.5,
              42.0
            ],
            [
              145.5,
              43.3
            ],
            [
              145.0,
              44.3
            ],
            [
              143.0,
              44.5
            ],
            [
              141.5,
              45.4
            ],
            [
              140.5,
              44.0
            ],
            [
              140.0,
              42.8
            ],
            [
              139.5,
              41.8
            ],
            [
              139.9,
              40.0
            ],
            [
              139.5,
              38.5
            ],
            [
              137.5,
              37.3
            ],
            [
              136.8,
              37.4
            ],
            [
              135.8,
              35.6
            ],
            [
              133.5,
              35.5
            ],
            [
              131.5,
              34.7
            ],
            [
              130.3,
              33.5
            ],
            [
              129.4,
              32.5
            ],
            [
              129.4,
              31.2
            ]
          ]
        ]
      }
    },
    {
      "type": "Feature",
      "properties": {
        "name": "Korea"
      },
      "geometry": {
        "type": "Polygon",
        "coordinates": [
          [
            [
              126.2,
              34.4
            ],
            [
              127.8,
              34.5
            ],
            [
              129.2,
              35.2
            ],
            [
              129.5,
              36.5
            ],
            [
              129.0,
              38.0
            ],
            [
              128.0,
              38.6
            ],
            [
              128.5,
              39.8
            ],
            [
              129.7,
              40.8
            ],
            [
              130.6,
              42.3
            ],
            [
              129.5,
              42.5
            ],
            [
              128.0,
              42.0
            ],
            [
              126.5,
              41.5
            ],
            [
              125.0,
              40.5
            ],
            [
              124.3,
              39.8
            ],
            [
              125.3,
              39.5
            ],
            [
              125.2,
              38.5
            ],
            [
              126.2,
              37.8
            ],
            [
              126.4,
              36.8
            ],
            [
              126.2,
              35.8
            ],
            [
              126.2,
              34.4
            ]
          ]
        ]
      }
    },
    {
      "type": "Feature",
      "properties": {
        "name": "Taiwan"
      },
      "geometry": {
        "type": "Polygon",
        "coordinates": [
          [
            [
              120.2,
              22.6
            ],
            [
              121.0,
              22.0
            ],
            [
              121.6,
              22.8
            ],
            [
              121.9,
              24.3
            ],
            [
              121.6,
              25.3
            ],
            [
              120.7,
              25.2
            ],
            [
              120.1,
              23.8
            ],
            [
              120.2,
              22.6
            ]
          ]
        ]
      }
    },
    {
      "type": "Feature",
      "properties": {
        "name": "Karafuto"
      },
      "geometry": {
        "type": "Polygon",
        "coordinates": [
          [
            [
              141.9,
              46.0
            ],
            [
              142.4,
              46.7
            ],
            [
              142.2,
              48.0
            ],
            [
              142.0,
              49.0
            ],
            [
              142.0,
              50.0
            ],
            [
              143.5,
              50.0
            ],
            [
              143.4,
              49.2
            ],
            [
              144.7,
              48.9
            ],
            [
              143.9,
              48.0
            ],
            [
              143.3,
              47.0
            ],
            [
              142.6,
              46.3
            ],
            [
              141.9,
              46.0
            ]
          ]
        ]
      }
    },
    {
      "type": "Feature",
      "properties": {
        "name": "Manchuria (Manchukuo)"
      },
      "geometry": {
        "type": "Polygon",
        "coordinates": [
          [
            [
              121.2,
              40.9
            ],
            [
              122.3,
              40.5
            ],
            [
              123.5,
              39.8
            ],
            [
              124.3,
              39.8
            ],
            [
              125.0,
              40.5
            ],
            [
              126.5,
              41.5
            ],
            [
              128.0,
              42.0
            ],
            [
              129.5,
              42.5
            ],
            [
              130.6,
              42.3
            ],
            [
              131.2,
              43.5
            ],
            [
              131.0,
              45.2
            ],
            [
              133.0,
              46.0
            ],
            [
              134.5,
              47.5
            ],
            [
              134.0,
              48.4
            ],
            [
              132.5,
              47.8
            ],
            [
              130.5,
              48.5
            ],
            [
              129.0,
              49.5
            ],
            [
              127.5,
              50.0
            ],
            [
              126.5,
              51.5
            ],
            [
              125.5,
              52.8
            ],
            [
              124.0,
              53.3
            ],
            [
              122.5,
              53.4
            ],
            [
              121.0,
              52.5
            ],
            [
              120.0,
              51.0
            ],
            [
              119.5,
              49.5
            ],
            [
              117.5,
              49.5
            ],
            [
              116.5,
              48.0
            ],
            [
              117.5,
              46.5
            ],
            [
              118.5,
              45.0
            ],
            [
              120.0,
              43.5
            ],
            [
              119.0,
              42.5
            ],
            [
              120.0,
              41.5
            ],
            [
              121.2,
              40.9
            ]
          ]
        ]
      }
    },
    {
      "type": "Feature",
      "properties": {
        "name": "Occupied eastern China"
      },
      "geometry": {
        "type": "Polygon",
        "coordinates": [
          [
            [
              113.0,
              41.0
            ],
            [
              116.0,
              41.5
            ],
            [
              118.5,
              41.0
            ],
            [
              120.5,
              40.2
            ],
            [
              122.0,
              39.2
            ],
            [
              120.7,
              38.0
            ],
            [
              119.0,
              37.2
            ],
            [
              120.5,
              36.5
            ],
            [
              122.2,
              36.8
            ],
            [
              122.5,
              35.8
            ],
            [
              120.8,
              34.4
            ],
            [
              120.5,
              32.8
            ],
            [
              121.8,
              31.8
            ],
            [
              121.5,
              30.5
            ],
            [
              120.2,
              29.5
            ],
            [
              119.8,
              28.2
            ],
            [
              119.5,
              26.8
            ],
            [
              118.5,
              25.6
            ],
            [
              117.0,
              24.4
            ],
            [
              115.5,
              23.4
            ],
            [
              114.2,
              22.6
            ],
            [
              113.2,
              22.3
            ],
            [
              112.0,
              22.8
            ],
            [
              111.0,
              23.5
            ],
            [
              111.5,
              24.8
            ],
            [
              112.2,
              26.0
            ],
            [
              111.8,
              27.5
            ],
            [
              111.0,
              29.0
            ],
            [
              110.5,
              30.5
            ],
            [
              110.0,
              32.0
            ],
            [
              109.5,
              33.5
            ],
            [
              110.5,
              35.0
            ],
            [
              110.5,
              37.0
            ],
            [
              111.0,
              39.0
            ],
            [
              113.0,
              41.0
            ]
          ]
        ]
      }
    },
    {
      "type": "Feature",
      "properties": {
        "name": "Occupied mainland Southeast Asia (Burma, Thailand, Malaya, Indochina)"
      },
      "geometry": {
        "type": "Polygon",
        "coordinates": [
          [
            [
              92.2,
              21.5
            ],
            [
              93.5,
              23.5
            ],
            [
              94.5,
              25.5
            ],
            [
              96.0,
              27.0
            ],
            [
              97.5,
              28.0
            ],
            [
              98.5,
              27.0
            ],
            [
              98.8,
              25.5
            ],
            [
              100.0,
              24.0
            ],
            [
              101.5,
              23.0
            ],
            [
              103.0,
              23.0
            ],
            [
              104.5,
              23.0
            ],
            [
              106.0,
              22.8
            ],
            [
              107.0,
              21.5
            ],
            [
              106.7,
              20.5
            ],
            [
              105.8,
              19.5
            ],
            [
              105.8,
              18.5
            ],
            [
              106.5,
              17.5
            ],
            [
              107.5,
              16.8
            ],
            [
              108.5,
              15.8
            ],
            [
              109.2,
              13.8
            ],
            [
              109.0,
              11.8
            ],
            [
              107.5,
              10.5
            ],
            [
              105.5,
              9.0
            ],
            [
              104.5,
              9.8
            ],
            [
              103.5,
              10.5
            ],
            [
              102.5,
              12.0
            ],
            [
              101.5,
              12.5
            ],
            [
              100.5,
              13.2
            ],
            [
              100.2,
              12.0
            ],
            [
              99.2,
              10.5
            ],
            [
              99.5,
              9.0
            ],
            [
              100.5,
              7.5
            ],
            [
              101.8,
              6.5
            ],
            [
              102.8,
              5.5
            ],
            [
              103.5,
              4.0
            ],
            [
              103.8,
              2.5
            ],
            [
              103.5,
              1.4
            ],
            [
              102.5,
              1.8
            ],
            [
              101.3,
              2.8
            ],
            [
              100.3,
              4.0
            ],
            [
              99.5,
              5.5
            ],
            [
              98.5,
              7.0
            ],
            [
              98.2,
              8.5
            ],
            [
              98.8,
              10.0
            ],
            [
              97.8,
              12.0
            ],
            [
              97.5,
              14.0
            ],
            [
              96.8,
              15.5
            ],
            [
              95.5,
              15.8
            ],
            [
              94.2,
              16.0
            ],
            [
              93.8,
              17.5
            ],
            [
              93.5,
              19.0
            ],
            [
              92.2,
              20.2
            ],
            [
              92.2,
              21.5
            ]
          ]
        ]
      }
    },
    {
      "type": "Feature",
      "properties": {
        "name": "Occupied Philippines"
      },
      "geometry": {
        "type": "Polygon",
        "coordinates": [
          [
            [
              120.0,
              18.5
            ],
            [
              121.8,
              18.3
            ],
            [
              122.2,
              17.0
            ],
            [
              121.8,
              15.5
            ],
            [
              121.5,
              14.0
            ],
            [
              122.5,
              13.0
            ],
            [
              123.8,
              12.5
            ],
            [
              125.2,
              12.5
            ],
            [
              125.5,
              10.5
            ],
            [
              126.2,
              9.0
            ],
            [
              126.3,
              7.2
            ],
            [
              125.5,
              5.8
            ],
            [
              124.2,
              6.0
            ],
            [
              122.5,
              6.8
            ],
            [
              121.8,
              7.8
            ],
            [
              122.8,
              8.5
            ],
            [
              123.0,
              9.5
            ],
            [
              121.8,
              10.5
            ],
            [
              120.8,
              11.5
            ],
            [
              119.8,
              12.5
            ],
            [
              120.2,
              14.0
            ],
            [
              119.8,
              16.0
            ],
            [
              120.0,
              18.5
            ]
          ]
        ]
      }
    },
    {
      "type": "Feature",
      "properties": {
        "name": "Occupied Sumatra"
      },
      "geometry": {
        "type": "Polygon",
        "coordinates": [
          [
            [
              95.3,
              5.6
            ],
            [
              97.5,
              4.5
            ],
            [
              99.0,
              3.0
            ],
            [
              100.5,
              1.5
            ],
            [
              102.0,
              0.0
            ],
            [
              103.5,
              -1.5
            ],
            [
              104.8,
              -3.0
            ],
            [
              105.8,
              -4.5
            ],
            [
              105.0,
              -5.8
            ],
            [
              103.5,
              -5.2
            ],
            [
              102.0,
              -4.0
            ],
            [
              100.5,
              -2.5
            ],
            [
              99.0,
              -1.0
            ],
            [
              97.5,
              0.8
            ],
            [
              96.0,
              2.5
            ],
            [
              95.0,
              4.0
            ],
            [
              95.3,
              5.6
            ]
          ]
        ]
      }
    },
    {
      "type": "Feature",
      "properties": {
        "name": "Occupied Java"
      },
      "geometry": {
        "type": "Polygon",
        "coordinates": [
          [
            [
              105.2,
              -6.8
            ],
            [
              107.5,
              -6.2
            ],
            [
              110.0,
              -6.4
            ],
            [
              112.5,
              -6.9
            ],
            [
              114.5,
              -7.5
            ],
            [
              114.3,
              -8.5
            ],
            [
              112.0,
              -8.4
            ],
            [
              109.5,
              -7.9
            ],
            [
              107.0,
              -7.6
            ],
            [
              105.4,
              -7.3
            ],
            [
              105.2,
              -6.8
            ]
          ]
        ]
      }
    },
    {
      "type": "Feature",
      "properties": {
        "name": "Occupied Borneo"
      },
      "geometry": {
        "type": "Polygon",
        "coordinates": [
          [
            [
              109.5,
              2.0
            ],
            [
              111.5,
              1.5
            ],
            [
              113.5,
              3.2
            ],
            [
              115.5,
              4.8
            ],
            [
              117.5,
              6.5
            ],
            [
              119.0,
              5.2
            ],
            [
              118.0,
              3.0
            ],
            [
              117.5,
              1.0
            ],
            [
              116.5,
              -1.5
            ],
            [
              116.0,
              -3.5
            ],
            [
              114.5,
              -4.0
            ],
            [
              112.5,
              -3.5
            ],
            [
              110.5,
              -3.0
            ],
            [
              109.5,
              -1.5
            ],
            [
              108.8,
              0.0
            ],
            [
              109.5,
              2.0
            ]
          ]
        ]
      }
    },
    {
      "type": "Feature",
      "properties": {
        "name": "Occupied Celebes and New Guinea coast"
      },
      "geometry": {
        "type": "Polygon",
        "coordinates": [
          [
            [
              119.0,
              0.8
            ],
            [
              120.5,
              1.2
            ],
            [
              122.5,
              1.0
            ],
            [
              124.5,
              1.5
            ],
            [
              125.2,
              0.5
            ],
            [
              123.5,
              0.0
            ],
            [
              121.5,
              -1.0
            ],
            [
              122.5,
              -2.5
            ],
            [
              122.0,
              -4.5
            ],
            [
              121.0,
              -5.5
            ],
            [
              119.5,
              -5.6
            ],
            [
              119.0,
              -3.5
            ],
            [
              118.8,
              -1.5
            ],
            [
              119.0,
              0.8
            ]
          ]
        ]
      }
    },
    {
      "type": "Feature",
      "properties": {
        "name": "Occupied New Guinea north coast"
      },
      "geometry": {
        "type": "Polygon",
        "coordinates": [
          [
            [
              131.0,
              -0.9
            ],
            [
              134.0,
              -1.2
            ],
            [
              137.0,
              -1.8
            ],
            [
              140.0,
              -2.3
            ],
            [
              141.0,
              -2.8
            ],
            [
              141.0,
              -4.0
            ],
            [
              138.5,
              -3.8
            ],
            [
              135.5,
              -3.2
            ],
            [
              132.5,
              -2.5
            ],
            [
              130.8,
              -1.8
            ],
            [
              131.0,
              -0.9
            ]
          ]
        ]
      }
    }
  ]
}