{
  "type": "FeatureCollection",
  "features": [
    {
      "type": "Feature",
      "properties": {
        "name": "Japanese home islands 1933"
      },
      "geometry": {
        "type": "Polygon",
        "coordinates": [
          [
            [129.4, 31.2],
            [130.6, 30.9],
            [131.8, 31.5],
            [132.6, 32.8],
            [134.0, 33.3],
            [135.5, 33.4],
            [137.0, 34.4],
            [138.8, 34.5],
            [140.4, 35.2],
            [141.2, 36.5],
            [141.6, 38.5],
            [141.9, 40.5],
            [141.0, 41.8],
            [142.0, 42.2],
            [143.5, 42.0],
            [145.5, 43.3],
            [145.0, 44.3],
            [143.0, 44.5],
            [141.5, 45.4],
            [140.5, 44.0],
            [140.0, 42.8],
            [139.5, 41.8],
            [139.9, 40.0],
            [139.5, 38.5],
            [137.5, 37.3],
            [136.8, 37.4],
            [135.8, 35.6],
            [133.5, 35.5],
            [131.5, 34.7],
            [130.3, 33.5],
            [129.4, 32.5],
            [129.4, 31.2]
          ]
        ]
      }
    },
    {
      "type": "Feature",
      "properties": {
        "name": "Korea"
      },
      "geometry": {
        "type": "Polygon",
        "coordinates": [
          [
            [126.2, 34.4],
            [127.8, 34.5],
            [129.2, 35.2],
            [129.5, 36.5],
            [129.0, 38.0],
            [128.0, 38.6],
            [128.5, 39.8],
            [129.7, 40.8],
            [130.6, 42.3],
            [129.5, 42.5],
            [128.0, 42.0],
            [126.5, 41.5],
            [125.0, 40.5],
            [124.3, 39.8],
            [125.3, 39.5],
            [125.2, 38.5],
            [126.2, 37.8],
            [126.4, 36.8],
            [126.2, 35.8],
            [126.2, 34.4]
          ]
        ]
      }
    },
    {
      "type": "Feature",
      "properties": {
        "name": "Taiwan"
      },
      "geometry": {
        "type": "Polygon",
        "coordinates": [
          [
            [120.2, 22.6],
            [121.0, 22.0],
            [121.6, 22.8],
            [121.9, 24.3],
            [121.6, 25.3],
            [120.7, 25.2],
            [120.1, 23.8],
            [120.2, 22.6]
          ]
        ]
      }
    },
    {
      "type": "Feature",
      "properties": {
        "name": "Karafuto"
      },
      "geometry": {
        "type": "Polygon",
        "coordinates": [
          [
            [141.9, 46.0],
            [142.4, 46.7],
            [142.2, 48.0],
            [142.0, 49.0],
            [142.0, 50.0],
            [143.5, 50.0],
            [143.4, 49.2],
            [144.7, 48.9],
            [143.9, 48.0],
            [143.3, 47.0],
            [142.6, 46.3],
            [141.9, 46.0]
          ]
        ]
      }
    },
    {
      "type": "Feature",
      "properties": {
        "name": "Manchuria (Manchukuo, occupied 1931)"
      },
      "geometry": {
        "type": "Polygon",
        "coordinates": [
          [
            [121.2, 40.9],
            [122.3, 40.5],
            [123.5, 39.8],
            [124.3, 39.8],
            [125.0, 40.5],
            [126.5, 41.5],
            [128.0, 42.0],
            [129.5, 42.5],
            [130.6, 42.3],
            [131.2, 43.5],
            [131.0, 45.2],
            [133.0, 46.0],
            [134.5, 47.5],
            [134.0, 48.4],
            [132.5, 47.8],
            [130.5, 48.5],
            [129.0, 49.5],
            [127.5, 50.0],
            [126.5, 51.5],
            [125.5, 52.8],
            [124.0, 53.3],
            [122.5, 53.4],
            [121.0, 52.5],
            [120.0, 51.0],
            [119.5, 49.5],
            [117.5, 49.5],
            [116.5, 48.0],
            [117.5, 46.5],
            [118.5, 45.0],
            [120.0, 43.5],
            [119.0, 42.5],
            [120.0, 41.5],
            [121.2, 40.9]
          ]
        ]
      }
    }
  ]
}
