{
  "type": "FeatureCollection",
  "features": [
    {
      "type": "Feature",
      "properties": { "name": "Gran Colombia 1830 (rump New Granada with Panama)" },
      "geometry": {
        "type": "Polygon",
        "coordinates": [
          [
            [-82.9, 8.4],
            [-81.5, 8.8],
            [-80.0, 9.3],
            [-79.0, 9.6],
            [-77.5, 8.7],
            [-76.8, 8.6],
            [-75.5, 10.5],
            [-74.5, 11.1],
            [-72.5, 11.8],
            [-71.3, 12.5],
            [-72.4, 11.1],
            [-72.9, 9.2],
            [-72.5, 8.4],
            [-70.1, 7.0],
            [-67.5, 6.3],
            [-67.3, 3.4],
            [-66.9, 1.2],
            [-69.9, 1.7],
            [-70.0, -0.2],
            [-69.4, -1.2],
            [-70.5, -2.3],
            [-73.5, -1.8],
            [-75.3, -0.1],
            [-77.5, 0.4],
            [-78.9, 1.4],
            [-77.7, 3.5],
            [-77.4, 6.9],
            [-77.9, 7.2],
            [-78.5, 8.6],
            [-79.5, 8.9],
            [-80.4, 8.2],
            [-81.7, 7.3],
            [-82.9, 8.4]
          ]
        ]
      }
    }
  ]
}
