{
  "type": "FeatureCollection",
  "features": [
    {
      "type": "Feature",
      "properties": { "name": "Gran Colombia 1819 (patriot interior)" },
      "geometry": {
        "type": "Polygon",
        "coordinates": [
          [
            [-75.5, 8.5],
            [-73.5, 9.0],
            [-71.0, 8.5],
            [-69.0, 8.3],
            [-67.0, 8.0],
            [-64.5, 8.3],
            [-61.5, 8.8],
            [-60.9, 8.9],
            [-61.0, 7.0],
            [-61.5, 5.9],
            [-60.7, 4.9],
            [-63.5, 3.9],
            [-65.0, 4.0],
            [-67.0, 3.0],
            [-69.0, 2.0],
            [-70.0, 2.0],
            [-73.0, 2.5],
            [-74.5, 4.5],
            [-75.5, 5.5],
            [-75.8, 7.0],
            [-75.5, 8.5]
          ]
        ]
      }
    }
  ]
}
