{
  "type": "FeatureCollection",
  "features": [
    {
      "type": "Feature",
      "properties": { "name": "Gran Colombia 1826 (peak extent)" },
      "geometry": {
        "type": "Polygon",
        "coordinates": [
          [
            [-82.9, 8.4],
            [-81.5, 8.8],
            [-80.0, 9.3],
            [-79.0, 9.6],
            [-77.5, 8.7],
            [-76.8, 8.6],
            [-75.5, 10.5],
            [-74.5, 11.1],
            [-72.5, 11.8],
            [-71.3, 12.5],
            [-70.2, 11.6],
            [-68.4, 11.4],
            [-66.9, 10.7],
            [-64.2, 10.7],
            [-62.7, 10.7],
            [-60.8, 9.2],
            [-61.2, 8.5],
            [-60.7, 7.2],
            [-61.4, 5.9],
            [-60.6, 4.9],
            [-63.4, 3.9],
            [-65.0, 4.0],
            [-66.9, 1.2],
            [-69.9, 1.7],
            [-70.0, -0.2],
            [-69.4, -1.2],
            [-70.7, -2.8],
            [-73.7, -2.5],
            [-75.5, -0.9],
            [-76.6, 0.2],
            [-78.4, -2.4],
            [-79.5, -4.4],
            [-80.5, -3.4],
            [-81.0, -2.2],
            [-80.8, -0.6],
            [-79.0, 1.5],
            [-77.7, 3.5],
            [-77.4, 6.9],
            [-77.9, 7.2],
            [-78.5, 8.6],
            [-79.5, 8.9],
            [-80.4, 8.2],
            [-81.7, 7.3],
            [-82.9, 8.4]
          ]
        ]
      }
    }
  ]
}
