{
  "type": "FeatureCollection",
  "features": [
    {
      "type": "Feature",
      "properties": { "name": "Gupta rump 550 (Magadha and Bengal under the last Guptas)" },
      "geometry": {
        "type": "Polygon",
        "coordinates": [
          [
            [82.0, 24.0],
            [83.5, 23.3],
            [85.5, 22.8],
            [87.5, 22.3],
            [89.0, 22.8],
            [89.5, 24.0],
            [89.0, 25.3],
            [87.5, 26.0],
            [85.5, 26.3],
            [83.5, 26.2],
            [82.2, 25.6],
            [81.8, 24.8],
            [82.0, 24.0]
          ]
        ]
      }
    }
  ]
}
