{
  "type": "FeatureCollection",
  "features": [
    {
      "type": "Feature",
      "properties": { "name": "Hittite Empire 1300 BCE (peak after Qadesh, Anatolia and north Syria)" },
      "geometry": {
        "type": "Polygon",
        "coordinates": [
          [
            [27.5, 40.0],
            [29.5, 40.8],
            [32.0, 41.5],
            [34.5, 41.8],
            [36.5, 41.5],
            [38.0, 40.5],
            [39.5, 39.5],
            [40.0, 38.5],
            [39.5, 37.5],
            [38.5, 36.8],
            [38.0, 36.0],
            [37.5, 35.3],
            [36.3, 34.5],
            [35.8, 35.2],
            [36.0, 36.3],
            [35.0, 36.5],
            [33.0, 36.2],
            [31.0, 36.4],
            [29.5, 36.6],
            [28.0, 37.2],
            [27.0, 38.2],
            [26.8, 39.0],
            [26.8, 39.8],
            [27.5, 40.0]
          ]
        ]
      }
    }
  ]
}
