{
  "type": "FeatureCollection",
  "features": [
    {
      "type": "Feature",
      "properties": { "name": "Neo-Inca state at Vilcabamba, final year 1572" },
      "geometry": {
        "type": "Polygon",
        "coordinates": [
          [
            [-73.7, -12.7],
            [-73.2, -12.3],
            [-72.6, -12.2],
            [-72.1, -12.5],
            [-71.9, -13.0],
            [-72.3, -13.4],
            [-72.9, -13.6],
            [-73.5, -13.3],
            [-73.7, -12.7]
          ]
        ]
      }
    }
  ]
}
