{
  "type": "FeatureCollection",
  "features": [
    {
      "type": "Feature",
      "properties": { "name": "Inca heartland 1438 (Cusco region under Pachacuti)" },
      "geometry": {
        "type": "Polygon",
        "coordinates": [
          [
            [-74.2, -13.4],
            [-73.6, -12.8],
            [-72.9, -12.3],
            [-72.0, -12.1],
            [-71.2, -12.5],
            [-70.6, -13.1],
            [-70.0, -13.9],
            [-69.5, -14.9],
            [-69.2, -15.9],
            [-69.4, -16.6],
            [-70.2, -16.9],
            [-71.1, -16.6],
            [-72.0, -16.1],
            [-72.9, -15.3],
            [-73.7, -14.4],
            [-74.2, -13.4]
          ]
        ]
      }
    }
  ]
}
