{
  "type": "FeatureCollection",
  "features": [
    {
      "type": "Feature",
      "properties": {
        "name": "Denmark 1520 (Christian II)"
      },
      "geometry": {
        "type": "Polygon",
        "coordinates": [
          [
            [8.1, 55.5],
            [8.6, 57.1],
            [9.8, 57.7],
            [10.6, 57.7],
            [10.2, 56.7],
            [10.8, 56.2],
            [12.5, 56.1],
            [12.9, 55.4],
            [12.2, 54.8],
            [10.8, 54.8],
            [9.5, 54.8],
            [8.6, 54.9],
            [8.1, 55.5]
          ]
        ]
      }
    },
    {
      "type": "Feature",
      "properties": {
        "name": "Scandinavian peninsula 1520 (Norway and briefly resubdued Sweden)"
      },
      "geometry": {
        "type": "Polygon",
        "coordinates": [
          [
            [5.5, 58.7],
            [4.9, 61.0],
            [5.5, 62.2],
            [7.0, 63.5],
            [9.5, 64.5],
            [12.0, 65.8],
            [14.5, 67.2],
            [17.0, 68.4],
            [19.5, 69.3],
            [22.0, 70.0],
            [25.0, 70.8],
            [28.0, 71.0],
            [30.5, 70.2],
            [28.5, 69.5],
            [26.0, 68.8],
            [24.0, 65.8],
            [22.0, 65.0],
            [21.0, 63.5],
            [19.5, 62.5],
            [18.5, 61.5],
            [18.8, 60.5],
            [18.5, 59.3],
            [16.5, 58.5],
            [16.8, 57.5],
            [16.0, 56.5],
            [14.5, 55.9],
            [12.9, 55.4],
            [11.9, 57.5],
            [10.5, 59.0],
            [8.0, 58.2],
            [6.5, 58.1],
            [5.5, 58.7]
          ]
        ]
      }
    },
    {
      "type": "Feature",
      "properties": {
        "name": "Finland 1520 (Swedish realm)"
      },
      "geometry": {
        "type": "Polygon",
        "coordinates": [
          [
            [21.5, 60.4],
            [22.5, 59.9],
            [24.5, 60.1],
            [26.5, 60.5],
            [28.5, 61.0],
            [30.5, 62.0],
            [31.0, 63.2],
            [30.0, 64.5],
            [29.5, 66.0],
            [28.5, 67.5],
            [26.5, 68.5],
            [24.5, 68.0],
            [23.5, 66.8],
            [24.0, 65.8],
            [23.0, 64.5],
            [21.8, 63.2],
            [21.0, 62.0],
            [21.2, 61.0],
            [21.5, 60.4]
          ]
        ]
      }
    }
  ]
}
