{
  "type": "FeatureCollection",
  "features": [
    {
      "type": "Feature",
      "properties": {
        "name": "Macedon and Greece 330 BCE"
      },
      "geometry": {
        "type": "Polygon",
        "coordinates": [
          [
            [20.2, 39.6],
            [21.0, 38.5],
            [21.2, 36.9],
            [22.5, 36.5],
            [23.2, 36.7],
            [22.8, 37.6],
            [24.0, 38.0],
            [23.0, 38.8],
            [23.0, 39.5],
            [22.7, 40.4],
            [24.0, 40.6],
            [25.8, 40.9],
            [27.0, 41.2],
            [28.9, 42.2],
            [27.5, 42.8],
            [26.0, 42.5],
            [24.5, 42.2],
            [23.0, 42.3],
            [21.8, 41.8],
            [21.0, 41.2],
            [20.5, 40.8],
            [20.2, 39.6]
          ]
        ]
      }
    },
    {
      "type": "Feature",
      "properties": {
        "name": "Conquered Achaemenid west 330 BCE (Anatolia to Persepolis)"
      },
      "geometry": {
        "type": "Polygon",
        "coordinates": [
          [
            [26.5, 40.3],
            [30.0, 41.2],
            [33.5, 42.0],
            [36.5, 41.5],
            [39.5, 41.1],
            [41.5, 41.3],
            [43.5, 40.5],
            [44.5, 39.5],
            [45.5, 38.5],
            [47.0, 38.0],
            [48.5, 38.2],
            [49.5, 37.2],
            [51.5, 36.8],
            [53.5, 36.9],
            [55.5, 36.5],
            [57.5, 35.5],
            [58.5, 34.0],
            [59.0, 32.0],
            [58.0, 30.0],
            [56.5, 28.0],
            [54.5, 26.9],
            [52.5, 27.5],
            [50.8, 28.8],
            [49.4, 30.0],
            [47.9, 29.9],
            [46.0, 29.8],
            [44.0, 30.2],
            [41.5, 31.0],
            [38.5, 30.2],
            [36.2, 29.3],
            [34.8, 29.4],
            [33.8, 28.4],
            [33.0, 26.5],
            [32.9, 24.1],
            [31.8, 24.5],
            [30.8, 26.5],
            [30.2, 28.5],
            [29.2, 30.5],
            [28.0, 30.9],
            [29.8, 31.3],
            [32.3, 31.3],
            [34.2, 31.4],
            [35.0, 33.0],
            [35.9, 35.5],
            [36.2, 36.5],
            [34.5, 36.6],
            [32.5, 36.3],
            [30.5, 36.5],
            [28.5, 36.8],
            [27.2, 37.5],
            [26.5, 38.5],
            [26.3, 39.5],
            [26.5, 40.3]
          ]
        ]
      }
    }
  ]
}
