{
  "type": "FeatureCollection",
  "features": [
    {
      "type": "Feature",
      "properties": {
        "name": "Macedon and the League of Corinth 336 BCE (Philip II's death)"
      },
      "geometry": {
        "type": "Polygon",
        "coordinates": [
          [
            [20.2, 39.6],
            [21.0, 38.5],
            [21.2, 36.9],
            [22.5, 36.5],
            [23.2, 36.7],
            [22.8, 37.6],
            [24.0, 38.0],
            [23.0, 38.8],
            [23.0, 39.5],
            [22.7, 40.4],
            [24.0, 40.6],
            [25.8, 40.9],
            [27.0, 41.2],
            [28.9, 42.2],
            [27.5, 42.8],
            [26.0, 42.5],
            [24.5, 42.2],
            [23.0, 42.3],
            [21.8, 41.8],
            [21.0, 41.2],
            [20.5, 40.8],
            [20.2, 39.6]
          ]
        ]
      }
    }
  ]
}
