{
  "type": "FeatureCollection",
  "features": [
    {
      "type": "Feature",
      "properties": {
        "name": "Majapahit founding 1293 (eastern Java)"
      },
      "geometry": {
        "type": "Polygon",
        "coordinates": [
          [
            [111.5, -6.9],
            [113.0, -6.9],
            [114.4, -7.4],
            [114.4, -8.4],
            [113.0, -8.3],
            [111.5, -8.2],
            [111.0, -7.6],
            [111.5, -6.9]
          ]
        ]
      }
    }
  ]
}
