{
  "type": "FeatureCollection",
  "features": [
    {
      "type": "Feature",
      "properties": {
        "name": "Majapahit 1365 (Java under Hayam Wuruk)"
      },
      "geometry": {
        "type": "Polygon",
        "coordinates": [
          [
            [105.2, -6.8],
            [107.5, -6.2],
            [110.0, -6.4],
            [112.5, -6.9],
            [114.5, -7.5],
            [114.3, -8.5],
            [112.0, -8.4],
            [109.5, -7.9],
            [107.0, -7.6],
            [105.4, -7.3],
            [105.2, -6.8]
          ]
        ]
      }
    },
    {
      "type": "Feature",
      "properties": {
        "name": "South-east Sumatra tributaries"
      },
      "geometry": {
        "type": "Polygon",
        "coordinates": [
          [
            [99.5, -1.0],
            [101.5, -2.0],
            [103.0, -3.2],
            [104.8, -4.5],
            [105.8, -5.8],
            [104.5, -5.6],
            [103.0, -4.8],
            [101.5, -3.5],
            [100.2, -2.2],
            [99.5, -1.0]
          ]
        ]
      }
    },
    {
      "type": "Feature",
      "properties": {
        "name": "South Borneo coastal tributaries"
      },
      "geometry": {
        "type": "Polygon",
        "coordinates": [
          [
            [109.5, -1.0],
            [111.0, -2.5],
            [113.0, -3.3],
            [115.0, -3.8],
            [116.3, -3.5],
            [116.5, -2.0],
            [115.5, -1.0],
            [114.0, -1.5],
            [112.0, -1.0],
            [110.5, -0.5],
            [109.5, -1.0]
          ]
        ]
      }
    },
    {
      "type": "Feature",
      "properties": {
        "name": "Bali and the Lesser Sundas"
      },
      "geometry": {
        "type": "Polygon",
        "coordinates": [
          [
            [114.5, -8.2],
            [116.5, -8.4],
            [118.5, -8.5],
            [119.2, -8.7],
            [118.5, -9.0],
            [116.5, -8.9],
            [114.8, -8.7],
            [114.5, -8.2]
          ]
        ]
      }
    }
  ]
}
