{
  "type": "FeatureCollection",
  "features": [
    {
      "type": "Feature",
      "properties": {
        "name": "Majapahit 1450 (Java, coastal sultanates rising)"
      },
      "geometry": {
        "type": "Polygon",
        "coordinates": [
          [
            [
              105.2,
              -6.8
            ],
            [
              107.5,
              -6.2
            ],
            [
              110.0,
              -6.4
            ],
            [
              112.5,
              -6.9
            ],
            [
              114.5,
              -7.5
            ],
            [
              114.3,
              -8.5
            ],
            [
              112.0,
              -8.4
            ],
            [
              109.5,
              -7.9
            ],
            [
              107.0,
              -7.6
            ],
            [
              105.4,
              -7.3
            ],
            [
              105.2,
              -6.8
            ]
          ]
        ]
      }
    }
  ]
}