{
  "type": "FeatureCollection",
  "features": [
    {
      "type": "Feature",
      "properties": { "name": "Maurya Empire 250 BCE (Ashoka, subcontinent minus the Tamil south)" },
      "geometry": {
        "type": "Polygon",
        "coordinates": [
          [
            [66.0, 30.0],
            [65.0, 32.0],
            [66.5, 34.0],
            [68.0, 35.5],
            [70.0, 36.5],
            [72.0, 36.0],
            [74.0, 35.5],
            [76.0, 34.5],
            [78.0, 33.5],
            [79.5, 32.0],
            [81.0, 30.2],
            [84.0, 28.8],
            [87.0, 27.8],
            [89.5, 27.2],
            [92.0, 26.8],
            [94.5, 27.0],
            [95.0, 26.0],
            [93.5, 24.5],
            [92.0, 23.0],
            [91.0, 22.2],
            [88.5, 21.8],
            [86.5, 21.0],
            [85.0, 19.8],
            [83.5, 18.2],
            [82.5, 17.0],
            [80.5, 15.8],
            [80.2, 14.5],
            [79.0, 13.5],
            [77.5, 13.0],
            [76.0, 13.2],
            [74.8, 14.0],
            [74.0, 15.5],
            [73.0, 17.5],
            [72.7, 19.5],
            [72.0, 21.2],
            [70.0, 20.8],
            [68.8, 22.3],
            [67.8, 23.5],
            [66.5, 25.0],
            [64.5, 25.3],
            [62.5, 25.2],
            [62.0, 27.0],
            [63.5, 29.0],
            [66.0, 30.0]
          ]
        ]
      }
    }
  ]
}
