{
  "type": "FeatureCollection",
  "features": [
    {
      "type": "Feature",
      "properties": {
        "name": "French Empire 1807 (post-Tilsit: France, Belgium, left bank of the Rhine, Piedmont-Liguria)"
      },
      "geometry": {
        "type": "Polygon",
        "coordinates": [
          [
            [-1.8, 43.4],
            [-1.2, 46.0],
            [-2.5, 47.3],
            [-4.7, 48.4],
            [-3.5, 48.8],
            [-1.5, 49.7],
            [0.2, 49.5],
            [1.5, 50.9],
            [2.5, 51.1],
            [3.5, 51.4],
            [4.5, 51.5],
            [5.9, 51.0],
            [6.5, 50.5],
            [6.7, 49.8],
            [7.5, 49.0],
            [8.2, 48.9],
            [7.6, 48.0],
            [7.5, 47.5],
            [6.8, 47.0],
            [6.0, 46.3],
            [6.8, 45.5],
            [7.0, 44.6],
            [7.6, 44.0],
            [9.5, 44.3],
            [8.9, 43.8],
            [7.5, 43.7],
            [6.2, 43.1],
            [4.8, 43.3],
            [3.2, 43.2],
            [3.0, 42.4],
            [1.8, 42.5],
            [0.5, 42.7],
            [-0.8, 42.9],
            [-1.8, 43.4]
          ]
        ]
      }
    }
  ]
}
