{
  "type": "FeatureCollection",
  "features": [
    {
      "type": "Feature",
      "properties": {
        "name": "French Empire 1812 (130 departments: to Hamburg and the Hanseatic coast)"
      },
      "geometry": {
        "type": "Polygon",
        "coordinates": [
          [
            [-1.8, 43.4],
            [-1.2, 46.0],
            [-2.5, 47.3],
            [-4.7, 48.4],
            [-3.5, 48.8],
            [-1.5, 49.7],
            [0.2, 49.5],
            [1.5, 50.9],
            [3.2, 51.3],
            [3.8, 51.6],
            [4.5, 52.3],
            [4.7, 52.9],
            [5.5, 53.3],
            [6.8, 53.5],
            [8.0, 53.7],
            [9.0, 54.0],
            [10.0, 54.4],
            [10.8, 53.9],
            [10.5, 53.3],
            [9.5, 53.0],
            [8.5, 52.5],
            [7.5, 52.2],
            [7.0, 51.5],
            [6.5, 50.8],
            [6.7, 49.8],
            [7.5, 49.0],
            [8.2, 48.9],
            [7.6, 48.0],
            [7.5, 47.5],
            [6.8, 47.0],
            [6.0, 46.3],
            [6.8, 45.5],
            [7.0, 44.6],
            [7.6, 44.0],
            [8.9, 44.4],
            [7.5, 43.7],
            [6.2, 43.1],
            [4.8, 43.3],
            [3.2, 43.2],
            [3.0, 42.4],
            [1.8, 42.5],
            [0.5, 42.7],
            [-0.8, 42.9],
            [-1.8, 43.4]
          ]
        ]
      }
    },
    {
      "type": "Feature",
      "properties": {
        "name": "Italian departments 1812 (Piedmont, Liguria, Tuscany, Rome)"
      },
      "geometry": {
        "type": "Polygon",
        "coordinates": [
          [
            [7.6, 44.0],
            [9.5, 44.3],
            [10.2, 43.9],
            [10.4, 43.0],
            [11.2, 42.4],
            [12.2, 41.9],
            [12.6, 41.4],
            [13.0, 41.3],
            [12.5, 42.2],
            [11.8, 43.0],
            [11.0, 43.8],
            [10.0, 44.5],
            [8.9, 44.6],
            [8.0, 44.6],
            [7.6, 44.0]
          ]
        ]
      }
    },
    {
      "type": "Feature",
      "properties": {
        "name": "Catalonia 1812 (annexed)"
      },
      "geometry": {
        "type": "Polygon",
        "coordinates": [
          [
            [3.2, 41.9],
            [2.2, 41.4],
            [1.0, 41.1],
            [0.5, 40.7],
            [0.3, 41.3],
            [0.7, 42.4],
            [1.8, 42.5],
            [3.0, 42.4],
            [3.2, 41.9]
          ]
        ]
      }
    },
    {
      "type": "Feature",
      "properties": {
        "name": "Illyrian Provinces 1812"
      },
      "geometry": {
        "type": "Polygon",
        "coordinates": [
          [
            [13.8, 45.6],
            [15.0, 45.8],
            [16.0, 45.2],
            [16.5, 44.5],
            [17.5, 43.5],
            [18.2, 42.6],
            [18.7, 42.4],
            [18.4, 42.0],
            [17.0, 43.0],
            [15.8, 43.7],
            [14.8, 44.6],
            [13.9, 44.8],
            [13.6, 45.2],
            [13.8, 45.6]
          ]
        ]
      }
    }
  ]
}
