{
  "type": "FeatureCollection",
  "features": [
    {
      "type": "Feature",
      "properties": { "name": "Neo-Babylonian Empire 600 BCE (after Carchemish, Levant contested)" },
      "geometry": {
        "type": "Polygon",
        "coordinates": [
          [
            [48.6, 29.9],
            [48.9, 30.8],
            [48.2, 31.9],
            [47.3, 33.0],
            [46.4, 34.1],
            [45.5, 35.1],
            [44.5, 36.0],
            [43.4, 36.8],
            [42.2, 37.3],
            [40.9, 37.5],
            [39.6, 37.3],
            [38.4, 37.0],
            [37.2, 36.7],
            [36.2, 36.4],
            [35.9, 35.7],
            [35.5, 34.6],
            [35.2, 33.6],
            [35.6, 32.9],
            [36.6, 32.4],
            [38.0, 31.8],
            [39.6, 31.4],
            [41.2, 31.0],
            [42.8, 30.5],
            [44.4, 30.1],
            [46.0, 29.8],
            [47.4, 29.7],
            [48.6, 29.9]
          ]
        ]
      }
    }
  ]
}
