{
  "type": "FeatureCollection",
  "features": [
    {
      "type": "Feature",
      "properties": { "name": "Neo-Babylonian state 620 BCE (Nabopolassar's Babylonia)" },
      "geometry": {
        "type": "Polygon",
        "coordinates": [
          [
            [47.8, 30.2],
            [48.5, 30.1],
            [48.3, 31.0],
            [47.6, 31.8],
            [46.9, 32.6],
            [46.1, 33.4],
            [45.3, 34.1],
            [44.4, 34.6],
            [43.5, 34.5],
            [42.9, 33.9],
            [43.1, 33.1],
            [43.8, 32.4],
            [44.6, 31.7],
            [45.5, 31.1],
            [46.5, 30.6],
            [47.8, 30.2]
          ]
        ]
      }
    }
  ]
}
