{
  "type": "FeatureCollection",
  "features": [
    {
      "type": "Feature",
      "properties": { "name": "Neo-Assyrian Empire 650 BCE (Ashurbanipal, Elam to Thebes)" },
      "geometry": {
        "type": "Polygon",
        "coordinates": [
          [
            [48.6, 29.9],
            [49.3, 31.5],
            [48.0, 33.5],
            [47.0, 35.0],
            [45.8, 36.3],
            [44.5, 37.3],
            [43.0, 38.2],
            [41.0, 38.6],
            [39.0, 38.4],
            [37.5, 37.9],
            [36.3, 37.3],
            [35.0, 37.0],
            [34.3, 36.5],
            [35.9, 35.8],
            [35.5, 34.6],
            [35.0, 33.4],
            [34.6, 32.2],
            [34.2, 31.3],
            [33.0, 30.9],
            [32.3, 31.1],
            [30.4, 31.2],
            [29.9, 30.6],
            [30.9, 29.3],
            [31.2, 27.9],
            [32.0, 26.4],
            [32.7, 25.5],
            [33.4, 26.0],
            [33.0, 27.5],
            [32.6, 29.0],
            [33.5, 29.8],
            [34.8, 29.4],
            [36.5, 30.2],
            [38.5, 31.0],
            [40.5, 31.5],
            [42.5, 30.8],
            [44.5, 30.4],
            [46.5, 30.0],
            [48.6, 29.9]
          ]
        ]
      }
    }
  ]
}
