{
  "type": "FeatureCollection",
  "features": [
    {
      "type": "Feature",
      "properties": {
        "name": "Neo-Babylonian Empire 540 BCE (eve of Cyrus, with the Arabian oases)"
      },
      "geometry": {
        "type": "Polygon",
        "coordinates": [
          [
            [48.6, 29.9],
            [48.9, 30.8],
            [48.2, 31.9],
            [47.3, 33.0],
            [46.4, 34.1],
            [45.5, 35.1],
            [44.5, 36.0],
            [43.4, 36.8],
            [42.2, 37.3],
            [40.9, 37.5],
            [39.6, 37.3],
            [38.4, 37.0],
            [37.2, 36.7],
            [36.2, 36.4],
            [35.9, 35.7],
            [35.5, 34.5],
            [35.0, 33.3],
            [34.5, 32.1],
            [34.2, 31.2],
            [34.6, 30.3],
            [34.9, 29.5],
            [36.1, 28.4],
            [37.3, 27.2],
            [38.4, 26.1],
            [39.4, 25.2],
            [40.4, 25.6],
            [40.0, 27.0],
            [39.9, 28.5],
            [40.7, 30.0],
            [42.4, 30.4],
            [44.1, 30.1],
            [45.8, 29.8],
            [47.3, 29.7],
            [48.6, 29.9]
          ]
        ]
      }
    }
  ]
}
