{
  "type": "FeatureCollection",
  "features": [
    {
      "type": "Feature",
      "properties": { "name": "New France 1712 (Canada, Acadia, pays d'en haut and Louisiana, eve of Utrecht)" },
      "geometry": {
        "type": "Polygon",
        "coordinates": [
          [
            [-60.0, 47.0],
            [-61.5, 45.8],
            [-63.5, 44.5],
            [-66.0, 43.5],
            [-67.5, 44.5],
            [-69.0, 45.5],
            [-71.0, 45.0],
            [-73.5, 44.0],
            [-75.0, 43.8],
            [-76.5, 43.3],
            [-79.0, 42.5],
            [-80.5, 40.5],
            [-83.0, 38.5],
            [-85.0, 36.8],
            [-86.5, 35.0],
            [-85.5, 33.5],
            [-85.3, 31.8],
            [-86.5, 30.8],
            [-88.0, 30.2],
            [-89.5, 29.4],
            [-91.5, 29.5],
            [-93.5, 29.7],
            [-94.8, 29.5],
            [-95.5, 31.0],
            [-96.2, 33.5],
            [-97.2, 36.5],
            [-97.0, 39.5],
            [-96.5, 43.0],
            [-96.8, 46.0],
            [-95.2, 48.9],
            [-93.0, 50.0],
            [-90.5, 51.0],
            [-87.0, 52.0],
            [-82.5, 52.7],
            [-79.5, 51.5],
            [-77.0, 51.0],
            [-74.0, 50.8],
            [-70.5, 50.6],
            [-66.5, 50.2],
            [-63.0, 49.8],
            [-60.5, 48.5],
            [-60.0, 47.0]
          ]
        ]
      }
    }
  ]
}
