{
  "type": "FeatureCollection",
  "features": [
    {
      "type": "Feature",
      "properties": { "name": "New France 1608 (St Lawrence valley at Quebec's founding)" },
      "geometry": {
        "type": "Polygon",
        "coordinates": [
          [
            [-73.2, 45.2],
            [-74.2, 45.3],
            [-73.8, 45.9],
            [-72.5, 47.3],
            [-71.2, 48.3],
            [-69.9, 48.9],
            [-68.5, 48.5],
            [-69.5, 47.8],
            [-70.5, 47.0],
            [-71.5, 46.4],
            [-72.2, 45.8],
            [-73.2, 45.2]
          ]
        ]
      }
    },
    {
      "type": "Feature",
      "properties": { "name": "Acadia (Port Royal)" },
      "geometry": {
        "type": "Polygon",
        "coordinates": [
          [
            [-66.2, 44.4],
            [-66.0, 45.2],
            [-65.2, 44.9],
            [-64.4, 44.5],
            [-65.4, 43.9],
            [-66.2, 44.4]
          ]
        ]
      }
    }
  ]
}
