{
  "type": "FeatureCollection",
  "features": [
    {
      "type": "Feature",
      "properties": { "name": "Portuguese Brazil 1560 (coastal captaincies, Paraíba to São Vicente)" },
      "geometry": {
        "type": "Polygon",
        "coordinates": [
          [
            [-34.9, -7.0],
            [-34.8, -8.1],
            [-35.3, -9.2],
            [-36.4, -10.4],
            [-37.1, -11.1],
            [-38.0, -12.2],
            [-38.5, -13.0],
            [-39.0, -14.1],
            [-39.0, -15.6],
            [-39.2, -17.1],
            [-39.7, -18.6],
            [-40.3, -20.3],
            [-41.0, -21.9],
            [-42.0, -22.9],
            [-43.2, -23.0],
            [-44.6, -23.3],
            [-45.4, -23.7],
            [-46.4, -24.1],
            [-47.2, -24.6],
            [-48.0, -24.2],
            [-47.5, -23.4],
            [-46.3, -22.7],
            [-45.2, -22.2],
            [-44.2, -21.8],
            [-43.2, -21.3],
            [-42.2, -20.5],
            [-41.3, -19.4],
            [-40.8, -18.0],
            [-40.4, -16.4],
            [-40.1, -14.9],
            [-39.9, -13.4],
            [-39.0, -11.9],
            [-38.0, -10.6],
            [-37.0, -9.5],
            [-36.2, -8.5],
            [-35.7, -7.6],
            [-34.9, -7.0]
          ]
        ]
      }
    }
  ]
}
