{
  "type": "FeatureCollection",
  "features": [
    {
      "type": "Feature",
      "properties": { "name": "Sasanian Empire 240 (Ardashir I, Iran and Mesopotamia)" },
      "geometry": {
        "type": "Polygon",
        "coordinates": [
          [
            [48.4, 29.9],
            [51.0, 28.3],
            [53.5, 27.2],
            [56.5, 26.7],
            [59.0, 25.6],
            [61.8, 25.2],
            [63.0, 27.0],
            [62.0, 29.5],
            [61.0, 31.5],
            [61.3, 33.5],
            [60.5, 35.5],
            [59.5, 37.0],
            [57.5, 38.0],
            [55.0, 37.5],
            [53.0, 36.8],
            [51.0, 36.9],
            [49.5, 37.5],
            [48.0, 38.5],
            [46.5, 39.0],
            [45.0, 38.2],
            [44.3, 37.0],
            [43.5, 35.8],
            [42.8, 34.7],
            [42.6, 33.6],
            [43.3, 32.7],
            [44.2, 31.9],
            [45.2, 31.1],
            [46.4, 30.4],
            [47.5, 30.0],
            [48.4, 29.9]
          ]
        ]
      }
    }
  ]
}
