{
  "type": "FeatureCollection",
  "features": [
    {
      "type": "Feature",
      "properties": { "name": "Seleucid realm 312 BCE (Seleucus retakes Babylon and the east)" },
      "geometry": {
        "type": "Polygon",
        "coordinates": [
          [
            [48.3, 29.9],
            [51.0, 28.3],
            [53.5, 27.2],
            [56.5, 26.8],
            [59.0, 25.6],
            [61.5, 25.1],
            [63.5, 26.5],
            [65.0, 28.5],
            [66.5, 30.5],
            [68.0, 32.0],
            [69.5, 34.0],
            [70.5, 36.0],
            [68.5, 38.0],
            [66.0, 39.5],
            [63.5, 39.0],
            [61.5, 37.5],
            [59.0, 37.8],
            [56.5, 38.2],
            [54.0, 37.0],
            [52.0, 36.8],
            [50.0, 36.9],
            [48.5, 37.8],
            [46.0, 37.0],
            [44.8, 36.0],
            [44.0, 35.0],
            [43.2, 34.2],
            [42.9, 33.4],
            [43.6, 32.5],
            [44.5, 31.6],
            [45.6, 30.9],
            [46.9, 30.3],
            [48.3, 29.9]
          ]
        ]
      }
    }
  ]
}
