{
  "type": "FeatureCollection",
  "features": [
    {
      "type": "Feature",
      "properties": { "name": "Seljuk realm 1040 (Khorasan after Dandanaqan)" },
      "geometry": {
        "type": "Polygon",
        "coordinates": [
          [
            [52.8, 36.5],
            [54.5, 37.5],
            [56.0, 38.8],
            [58.0, 39.8],
            [60.5, 39.5],
            [62.0, 38.0],
            [62.5, 36.5],
            [61.5, 35.0],
            [60.5, 33.8],
            [59.0, 33.0],
            [57.0, 32.5],
            [55.0, 33.0],
            [53.5, 34.2],
            [52.8, 35.4],
            [52.8, 36.5]
          ]
        ]
      }
    }
  ]
}
