{
  "type": "FeatureCollection",
  "features": [
    {
      "type": "Feature",
      "properties": { "name": "Sultanate of Rum 1180 (Anatolian remnant)" },
      "geometry": {
        "type": "Polygon",
        "coordinates": [
          [
            [29.5, 40.5],
            [32.5, 41.0],
            [35.0, 41.2],
            [37.0, 40.5],
            [38.5, 39.5],
            [38.0, 38.3],
            [36.8, 37.5],
            [35.0, 37.0],
            [33.0, 37.0],
            [31.2, 37.6],
            [30.2, 38.5],
            [29.6, 39.5],
            [29.5, 40.5]
          ]
        ]
      }
    },
    {
      "type": "Feature",
      "properties": { "name": "Iraq Seljuk sultanate 1180 (Hamadan rump)" },
      "geometry": {
        "type": "Polygon",
        "coordinates": [
          [
            [44.5, 33.0],
            [45.5, 32.2],
            [47.0, 31.8],
            [48.5, 32.0],
            [49.8, 33.0],
            [50.5, 34.3],
            [50.0, 35.6],
            [48.8, 36.5],
            [47.3, 36.9],
            [45.8, 36.5],
            [44.8, 35.5],
            [44.2, 34.3],
            [44.5, 33.0]
          ]
        ]
      }
    }
  ]
}
