{
  "type": "FeatureCollection",
  "features": [
    {
      "type": "Feature",
      "properties": { "name": "Seljuk Empire 1080 (Malik-Shah, Anatolia to Transoxiana)" },
      "geometry": {
        "type": "Polygon",
        "coordinates": [
          [
            [29.0, 40.0],
            [31.5, 41.0],
            [34.5, 41.5],
            [37.5, 41.0],
            [40.0, 41.0],
            [42.0, 41.3],
            [44.5, 40.5],
            [46.5, 40.0],
            [48.3, 39.5],
            [49.3, 37.8],
            [51.0, 36.9],
            [53.0, 36.8],
            [55.0, 37.5],
            [57.0, 38.5],
            [59.0, 39.5],
            [61.0, 40.0],
            [63.0, 39.5],
            [64.0, 38.0],
            [63.5, 36.0],
            [62.5, 34.0],
            [63.0, 31.5],
            [61.5, 28.5],
            [59.5, 26.0],
            [57.0, 26.6],
            [54.5, 27.2],
            [52.0, 28.0],
            [50.0, 29.2],
            [48.4, 29.9],
            [46.8, 30.3],
            [45.5, 31.0],
            [44.4, 31.8],
            [43.5, 32.8],
            [42.0, 33.5],
            [40.0, 33.5],
            [38.5, 33.5],
            [36.3, 33.5],
            [35.8, 34.6],
            [36.0, 36.0],
            [35.0, 36.5],
            [33.0, 36.5],
            [31.0, 36.8],
            [29.5, 37.5],
            [28.8, 38.6],
            [29.0, 40.0]
          ]
        ]
      }
    }
  ]
}
