{
  "type": "FeatureCollection",
  "features": [
    {
      "type": "Feature",
      "properties": { "name": "Sokoto jihad 1804 (Gobir, Zamfara and Kebbi)" },
      "geometry": {
        "type": "Polygon",
        "coordinates": [
          [
            [4.2, 12.2],
            [4.0, 12.8],
            [4.3, 13.4],
            [5.0, 13.8],
            [5.9, 13.9],
            [6.8, 13.6],
            [7.3, 13.0],
            [7.2, 12.3],
            [6.6, 11.8],
            [5.8, 11.5],
            [5.0, 11.6],
            [4.5, 11.9],
            [4.2, 12.2]
          ]
        ]
      }
    }
  ]
}
