{
  "type": "FeatureCollection",
  "features": [
    {
      "type": "Feature",
      "properties": { "name": "Tang founding 618 (Guanzhong and the North China Plain)" },
      "geometry": {
        "type": "Polygon",
        "coordinates": [
          [
            [103.5, 34.5],
            [104.5, 36.0],
            [106.0, 37.5],
            [108.5, 38.5],
            [111.0, 39.5],
            [113.5, 40.3],
            [116.0, 40.8],
            [118.5, 40.5],
            [120.5, 39.8],
            [119.5, 38.5],
            [118.0, 37.5],
            [119.0, 36.2],
            [120.5, 35.2],
            [122.0, 36.8],
            [122.5, 36.0],
            [120.5, 34.5],
            [119.5, 33.0],
            [117.0, 32.5],
            [114.5, 32.0],
            [112.0, 32.2],
            [110.0, 32.8],
            [108.0, 32.8],
            [106.0, 33.2],
            [104.0, 33.5],
            [103.5, 34.5]
          ]
        ]
      }
    }
  ]
}
