{
  "type": "FeatureCollection",
  "features": [
    {
      "type": "Feature",
      "properties": {
        "name": "Occupied Germany 1946 (four zones, east of Oder-Neisse gone)"
      },
      "geometry": {
        "type": "Polygon",
        "coordinates": [
          [
            [
              6.0,
              50.8
            ],
            [
              6.1,
              51.9
            ],
            [
              7.0,
              53.3
            ],
            [
              8.0,
              53.7
            ],
            [
              8.8,
              54.0
            ],
            [
              8.6,
              54.9
            ],
            [
              9.9,
              54.8
            ],
            [
              10.9,
              54.1
            ],
            [
              12.2,
              54.3
            ],
            [
              13.8,
              54.1
            ],
            [
              14.2,
              53.7
            ],
            [
              14.6,
              52.8
            ],
            [
              14.7,
              52.0
            ],
            [
              14.9,
              51.1
            ],
            [
              14.3,
              50.9
            ],
            [
              13.0,
              50.5
            ],
            [
              12.3,
              50.2
            ],
            [
              12.5,
              49.4
            ],
            [
              13.5,
              48.9
            ],
            [
              13.8,
              48.5
            ],
            [
              12.9,
              47.7
            ],
            [
              12.2,
              47.6
            ],
            [
              10.9,
              47.4
            ],
            [
              10.2,
              47.3
            ],
            [
              8.9,
              47.6
            ],
            [
              7.6,
              47.6
            ],
            [
              7.5,
              48.5
            ],
            [
              6.8,
              49.2
            ],
            [
              6.4,
              49.8
            ],
            [
              6.0,
              50.8
            ]
          ]
        ]
      }
    }
  ]
}