{
  "type": "FeatureCollection",
  "features": [
    {
      "type": "Feature",
      "properties": {
        "name": "Axis-held continent, autumn 1942 (Atlantic to the Volga bend and the Caucasus)"
      },
      "geometry": {
        "type": "Polygon",
        "coordinates": [
          [
            [-1.8, 43.4],
            [-1.2, 46.0],
            [-2.5, 47.3],
            [-4.7, 48.4],
            [-1.5, 49.7],
            [1.5, 50.9],
            [3.5, 51.5],
            [4.7, 52.9],
            [6.8, 53.5],
            [8.0, 53.7],
            [8.1, 55.5],
            [8.6, 57.1],
            [9.8, 57.7],
            [10.6, 57.7],
            [12.0, 56.5],
            [12.5, 54.5],
            [13.5, 54.2],
            [16.5, 54.5],
            [19.5, 54.8],
            [21.0, 55.5],
            [21.0, 56.5],
            [24.0, 57.5],
            [24.5, 58.5],
            [27.0, 59.5],
            [30.0, 59.8],
            [31.5, 59.0],
            [33.0, 58.0],
            [33.5, 57.0],
            [34.5, 56.0],
            [35.5, 55.0],
            [36.0, 54.0],
            [36.5, 52.5],
            [38.5, 51.5],
            [40.5, 50.0],
            [43.5, 48.7],
            [44.5, 47.5],
            [44.0, 45.5],
            [44.5, 43.9],
            [42.5, 43.3],
            [40.0, 43.5],
            [37.8, 44.7],
            [36.5, 45.2],
            [36.0, 45.0],
            [33.5, 44.5],
            [32.5, 45.3],
            [33.5, 46.0],
            [31.5, 46.3],
            [30.0, 45.8],
            [29.5, 45.2],
            [28.0, 43.5],
            [27.5, 42.0],
            [28.0, 41.2],
            [26.6, 41.6],
            [26.0, 40.7],
            [24.5, 40.8],
            [23.5, 40.2],
            [22.5, 40.0],
            [22.5, 39.0],
            [23.0, 38.0],
            [23.5, 37.5],
            [22.5, 36.8],
            [21.5, 37.0],
            [21.0, 38.5],
            [20.0, 39.7],
            [19.3, 40.7],
            [19.4, 41.9],
            [18.4, 42.5],
            [16.5, 43.5],
            [15.0, 44.5],
            [13.8, 44.9],
            [13.6, 45.5],
            [12.5, 45.4],
            [12.2, 44.3],
            [13.5, 43.6],
            [14.8, 42.2],
            [16.0, 41.9],
            [18.0, 40.6],
            [18.5, 40.1],
            [17.0, 40.3],
            [16.5, 38.9],
            [16.0, 37.9],
            [15.6, 40.0],
            [14.9, 40.2],
            [13.5, 41.2],
            [12.6, 41.4],
            [11.2, 42.4],
            [10.4, 43.0],
            [10.2, 43.9],
            [9.5, 44.3],
            [8.9, 44.4],
            [7.5, 43.7],
            [6.2, 43.1],
            [4.8, 43.3],
            [3.2, 43.2],
            [3.0, 42.4],
            [0.5, 42.7],
            [-1.8, 43.4]
          ]
        ]
      }
    },
    {
      "type": "Feature",
      "properties": {
        "name": "Occupied Norway 1942"
      },
      "geometry": {
        "type": "Polygon",
        "coordinates": [
          [
            [5.5, 58.7],
            [4.9, 61.0],
            [5.5, 62.2],
            [7.0, 63.5],
            [9.5, 64.5],
            [12.0, 65.8],
            [14.5, 67.2],
            [17.0, 68.4],
            [19.5, 69.3],
            [22.0, 70.0],
            [25.0, 70.8],
            [28.0, 71.0],
            [30.5, 70.2],
            [29.5, 69.5],
            [26.0, 69.8],
            [24.0, 68.8],
            [21.5, 69.2],
            [19.0, 68.3],
            [16.0, 67.0],
            [14.0, 65.5],
            [12.5, 64.0],
            [11.5, 62.5],
            [12.2, 61.0],
            [11.0, 59.5],
            [9.5, 58.8],
            [7.5, 58.0],
            [5.5, 58.7]
          ]
        ]
      }
    }
  ]
}
