{
  "type": "FeatureCollection",
  "features": [
    {
      "type": "Feature",
      "properties": { "name": "Umayyad Caliphate 720 (Atlantic to Transoxiana and Sindh)" },
      "geometry": {
        "type": "Polygon",
        "coordinates": [
          [
            [-9.7, 30.5],
            [-9.5, 32.5],
            [-7.5, 33.8],
            [-6.0, 34.5],
            [-5.5, 35.8],
            [-3.0, 35.3],
            [-0.5, 35.7],
            [2.5, 36.7],
            [5.5, 36.9],
            [8.0, 37.0],
            [10.2, 37.2],
            [11.0, 35.5],
            [10.1, 34.0],
            [10.5, 33.0],
            [13.5, 32.8],
            [15.5, 32.2],
            [18.0, 31.5],
            [20.2, 32.3],
            [23.0, 32.4],
            [25.2, 31.6],
            [27.5, 31.2],
            [29.8, 31.2],
            [32.3, 31.3],
            [34.3, 31.5],
            [35.2, 33.2],
            [35.9, 35.6],
            [36.3, 36.6],
            [38.0, 37.3],
            [40.5, 38.3],
            [42.5, 39.2],
            [44.3, 39.5],
            [46.5, 39.5],
            [48.8, 38.4],
            [49.8, 37.0],
            [52.0, 36.8],
            [54.0, 37.2],
            [56.0, 38.5],
            [58.0, 40.0],
            [60.0, 41.5],
            [62.5, 42.0],
            [65.0, 42.5],
            [67.5, 41.8],
            [69.5, 41.3],
            [70.5, 40.3],
            [69.5, 38.8],
            [70.5, 37.5],
            [71.0, 36.0],
            [70.5, 34.5],
            [70.0, 33.0],
            [70.8, 31.5],
            [71.5, 29.8],
            [70.5, 28.0],
            [69.5, 26.5],
            [68.5, 24.8],
            [67.5, 23.8],
            [65.0, 25.0],
            [62.0, 25.2],
            [59.5, 25.7],
            [57.0, 26.5],
            [56.4, 26.2],
            [58.8, 23.5],
            [59.8, 22.4],
            [57.5, 19.5],
            [54.0, 17.0],
            [52.0, 15.8],
            [48.5, 14.0],
            [45.0, 12.8],
            [43.3, 12.8],
            [42.5, 16.0],
            [41.0, 18.5],
            [39.8, 21.0],
            [38.8, 23.5],
            [37.5, 25.5],
            [36.0, 28.0],
            [34.9, 29.5],
            [34.0, 28.0],
            [32.9, 28.5],
            [32.9, 24.0],
            [31.8, 24.4],
            [30.5, 26.5],
            [29.5, 28.5],
            [28.5, 30.2],
            [25.5, 30.8],
            [22.0, 30.5],
            [18.5, 30.0],
            [15.0, 29.5],
            [11.5, 29.8],
            [8.5, 30.5],
            [5.0, 30.0],
            [1.5, 29.5],
            [-2.0, 29.8],
            [-5.5, 29.5],
            [-8.5, 29.5],
            [-9.7, 30.5]
          ]
        ]
      }
    },
    {
      "type": "Feature",
      "properties": { "name": "al-Andalus 720 (Iberia south of the Asturian and Basque fringe)" },
      "geometry": {
        "type": "Polygon",
        "coordinates": [
          [
            [-8.9, 41.8],
            [-8.7, 43.0],
            [-7.5, 43.3],
            [-6.0, 43.0],
            [-4.5, 42.8],
            [-3.0, 43.0],
            [-1.5, 43.0],
            [0.5, 42.5],
            [2.0, 42.4],
            [3.2, 42.3],
            [3.1, 41.5],
            [1.5, 41.0],
            [0.5, 40.2],
            [-0.2, 39.2],
            [0.0, 38.5],
            [-0.7, 37.8],
            [-1.8, 37.2],
            [-3.0, 36.8],
            [-4.5, 36.5],
            [-5.6, 36.0],
            [-6.5, 36.5],
            [-7.5, 37.0],
            [-8.9, 37.0],
            [-8.8, 38.5],
            [-9.4, 38.8],
            [-9.2, 39.8],
            [-8.9, 40.8],
            [-8.9, 41.8]
          ]
        ]
      }
    }
  ]
}
