{
  "type": "FeatureCollection",
  "features": [
    {
      "type": "Feature",
      "properties": { "name": "Arabia 632 (the community at Muhammad's death)" },
      "geometry": {
        "type": "Polygon",
        "coordinates": [
          [
            [34.9, 29.5],
            [36.0, 28.0],
            [37.5, 25.5],
            [38.8, 23.0],
            [39.8, 21.0],
            [41.0, 18.5],
            [42.5, 16.0],
            [43.3, 12.8],
            [45.0, 12.8],
            [48.5, 14.0],
            [52.0, 15.8],
            [54.0, 17.0],
            [57.5, 19.5],
            [59.8, 22.4],
            [58.8, 23.5],
            [56.4, 26.2],
            [55.0, 25.2],
            [53.5, 24.5],
            [51.5, 24.4],
            [51.2, 25.9],
            [50.6, 26.2],
            [48.8, 28.6],
            [47.5, 29.8],
            [45.5, 30.0],
            [44.0, 30.5],
            [41.0, 31.0],
            [38.5, 31.5],
            [36.5, 30.5],
            [34.9, 29.5]
          ]
        ]
      }
    }
  ]
}
