{
  "type": "FeatureCollection",
  "features": [
    {
      "type": "Feature",
      "properties": { "name": "Caliphate 661 (Mu'awiya's accession: Arabia, Levant, Egypt, Iran)" },
      "geometry": {
        "type": "Polygon",
        "coordinates": [
          [
            [20.2, 32.3],
            [23.0, 32.4],
            [25.2, 31.6],
            [27.5, 31.2],
            [29.8, 31.2],
            [32.3, 31.3],
            [34.3, 31.5],
            [35.2, 33.2],
            [35.9, 35.6],
            [36.3, 36.6],
            [38.0, 37.3],
            [40.5, 38.0],
            [42.5, 38.8],
            [44.3, 39.0],
            [46.5, 39.3],
            [48.8, 38.4],
            [49.8, 37.0],
            [52.0, 36.8],
            [54.0, 37.0],
            [56.5, 38.0],
            [58.5, 37.6],
            [60.0, 36.5],
            [61.5, 34.5],
            [62.5, 32.0],
            [63.0, 29.5],
            [61.5, 27.0],
            [59.5, 25.7],
            [57.0, 26.5],
            [56.4, 26.2],
            [58.8, 23.5],
            [59.8, 22.4],
            [57.5, 19.5],
            [54.0, 17.0],
            [52.0, 15.8],
            [48.5, 14.0],
            [45.0, 12.8],
            [43.3, 12.8],
            [42.5, 16.0],
            [41.0, 18.5],
            [39.8, 21.0],
            [38.8, 23.5],
            [37.5, 25.5],
            [36.0, 28.0],
            [34.9, 29.5],
            [34.0, 28.0],
            [32.9, 28.5],
            [32.9, 26.5],
            [32.9, 24.0],
            [31.8, 24.4],
            [30.5, 26.5],
            [29.5, 28.5],
            [28.5, 30.2],
            [25.5, 31.0],
            [22.5, 31.6],
            [20.2, 32.3]
          ]
        ]
      }
    }
  ]
}
