{
  "type": "FeatureCollection",
  "features": [
    {
      "type": "Feature",
      "properties": { "name": "Zulu Kingdom 1830 (post-Shaka height)" },
      "geometry": {
        "type": "Polygon",
        "coordinates": [
          [
            [30.65, -30.7],
            [30.9, -30.35],
            [31.1, -30.0],
            [31.35, -29.6],
            [31.6, -29.3],
            [31.85, -29.0],
            [32.0, -28.7],
            [32.2, -28.5],
            [32.4, -28.2],
            [32.55, -27.9],
            [32.7, -27.5],
            [32.85, -27.1],
            [32.9, -26.85],
            [32.4, -26.85],
            [31.95, -26.95],
            [31.5, -27.1],
            [31.0, -27.2],
            [30.6, -27.35],
            [30.2, -27.5],
            [29.9, -27.8],
            [29.65, -28.1],
            [29.45, -28.5],
            [29.3, -28.9],
            [29.3, -29.3],
            [29.5, -29.7],
            [29.8, -30.1],
            [30.15, -30.4],
            [30.65, -30.7]
          ]
        ]
      }
    }
  ]
}
