{
  "type": "FeatureCollection",
  "features": [
    {
      "type": "Feature",
      "properties": { "name": "Zululand 1870 (between the Tugela and the Pongola)" },
      "geometry": {
        "type": "Polygon",
        "coordinates": [
          [
            [31.45, -29.25],
            [31.75, -29.0],
            [32.0, -28.7],
            [32.2, -28.45],
            [32.4, -28.15],
            [32.55, -27.85],
            [32.7, -27.45],
            [32.85, -27.05],
            [32.9, -26.9],
            [32.45, -26.9],
            [32.0, -27.0],
            [31.55, -27.15],
            [31.1, -27.3],
            [30.8, -27.5],
            [30.6, -27.75],
            [30.45, -28.05],
            [30.35, -28.35],
            [30.45, -28.65],
            [30.7, -28.9],
            [31.0, -29.1],
            [31.45, -29.25]
          ]
        ]
      }
    }
  ]
}
